ONEWEB-0055             
1 45443U 20020V   21178.84976378  .00000370  00000-0  10073-2 0  9998
2 45443  87.8908  21.9361 0001877  87.4481 272.6862 13.11420535 64681
ONEWEB-0093             
1 45444U 20020W   21178.90209247 -.00000498  00000-0 -14424-2 0  9997
2 45444  87.8897  21.9811 0001824  87.8341 272.2996 13.11415800 64751
ONEWEB-0029             
1 45445U 20020X   21178.84763438 -.00006690  00000-0 -18911-1 0  9992
2 45445  87.8902  21.9696 0001866  96.8086 263.3254 13.11466555 64720
ONEWEB-0068             
1 45446U 20020Y   21178.81707473 -.00000501  00000-0 -14503-2 0  9996
2 45446  87.8894  21.9963 0002181  89.9588 270.1790 13.11415996 64666
ONEWEB-0046             
1 45447U 20020Z   21178.81271182 -.00000315  00000-0 -92517-3 0  9995
2 45447  87.8897  22.0016 0001572  91.6920 268.4388 13.11414860 64677
ONEWEB-0063             
1 45448U 20020AA  21178.84321614  .00000079  00000-0  18635-3 0  9999
2 45448  87.8894  22.0012 0001311  90.4332 269.6946 13.11423417 64767
ONEWEB-0019             
1 45449U 20020AB  21178.81924151 -.00000505  00000-0 -14604-2 0  9999
2 45449  87.8900  21.9748 0001790  82.8352 277.2979 13.11412712 64608
ONEWEB-0094             
1 45450U 20020AC  21178.76031011  .00000092  00000-0  20268-3 0  9992
2 45450  87.9113   6.7970 0002043  84.7276 275.4088 13.17651720 67236
ONEWEB-0087             
1 45451U 20020AD  21178.85195624  .00000472  00000-0  12950-2 0  9994
2 45451  87.8906  21.9939 0002332  99.2444 260.8948 13.11419374 64656
ONEWEB-0082             
1 45452U 20020AE  21178.85412294  .00000482  00000-0  13247-2 0  9991
2 45452  87.8898  21.9545 0002268  94.9550 265.1837 13.11420287 64748
ONEWEB-0050             
1 45453U 20020AF  21178.74503353  .00000408  00000-0  34733-4 0  9990
2 45453  87.5432 352.3637 0028307  63.5229 296.8900 14.94636639 69288
ONEWEB-0034             
1 45454U 20020AG  21178.87157300  .00000351  00000-0  95356-3 0  9996
2 45454  87.8894  21.9761 0001708  94.1437 265.9886 13.11415952 64666
ONEWEB-0060             
1 45455U 20020AH  21178.80397860  .00000011  00000-0 -40132-5 0  9995
2 45455  87.8897  21.9863 0001735  87.0882 273.0444 13.11420189 64611
ONEWEB-0086             
1 45456U 20020AJ  21178.82359434 -.00000581  00000-0 -16760-2 0  9993
2 45456  87.8898  21.9813 0002072  92.7140 267.4225 13.11416336 64672
ONEWEB-0088             
1 45457U 20020AK  21178.79745345  .00000295  00000-0  79706-3 0  9990
2 45457  87.8891  22.0139 0001650  94.2530 265.8787 13.11420724 64604
ONEWEB-0102             
1 47258U 20100A   21178.85314629  .00000395  00000-0  10619-2 0  9992
2 47258  87.8903 351.6385 0002180  88.3360 271.8018 13.12444445 26617
ONEWEB-0109             
1 47259U 20100B   21178.78751625  .00000370  00000-0  99200-3 0  9993
2 47259  87.8876 351.5066 0002114  82.0242 278.1127 13.12441126 26433
ONEWEB-0110             
1 47260U 20100C   21178.73243830 -.00000325  00000-0 -94015-3 0  9995
2 47260  87.8923 351.5738 0002190  85.8142 274.3237 13.12444235 26599
ONEWEB-0111             
1 47261U 20100D   21178.84045456  .00000186  00000-0  48138-3 0  9990
2 47261  87.8926 351.5779 0002119  92.5454 267.5917 13.12440999 26446
ONEWEB-0114             
1 47262U 20100E   21178.71974744  .00000031  00000-0  51105-4 0  9996
2 47262  87.8850 351.5079 0001870  80.8307 279.3033 13.12445944 26384
ONEWEB-0117             
1 47263U 20100F   21178.71338586  .00000220  00000-0  57584-3 0  9991
2 47263  87.8877 351.6006 0001995  88.0842 272.0515 13.12442811 26393
ONEWEB-0118             
1 47264U 20100G   21178.74089750 -.00000417  00000-0 -11943-2 0  9999
2 47264  87.8910 351.5939 0001841  82.8821 277.2517 13.12440378 26592
ONEWEB-0119             
1 47265U 20100H   21178.84680493  .00000369  00000-0  98951-3 0  9991
2 47265  87.8901 351.6494 0002004  88.2679 271.8679 13.12439210 26584
ONEWEB-0120             
1 47266U 20100J   21178.72398940 -.00000175  00000-0 -52126-3 0  9993
2 47266  87.8974 351.5120 0001906  80.8711 279.2633 13.12451808 26595
ONEWEB-0121             
1 47267U 20100K   21178.70917593  .00000410  00000-0  11036-2 0  9997
2 47267  87.8982 351.5626 0002117  93.6912 266.4458 13.12439725 26504
ONEWEB-0122             
1 47268U 20100L   21178.85527427  .00000407  00000-0  10958-2 0  9995
2 47268  87.8892 351.5519 0001792  85.2841 274.8492 13.12440679 26435
ONEWEB-0123             
1 47269U 20100M   21178.84889675  .00000408  00000-0  10984-2 0  9991
2 47269  87.8916 351.6001 0001792  87.5455 272.5879 13.12446839 26579
ONEWEB-0124             
1 47270U 20100N   21178.75785769  .00000044  00000-0  87161-4 0  9991
2 47270  87.8885 351.5890 0001901  91.8997 268.2349 13.12446485 26449
ONEWEB-0125             
1 47271U 20100P   21178.73667576 -.00000408  00000-0 -11695-2 0  9998
2 47271  87.8959 351.5825 0001830  92.8541 267.2797 13.12441794 26508
ONEWEB-0126             
1 47272U 20100Q   21178.83853329  .00005037  00000-0  13959-1 0  9998
2 47272  87.8917 351.6488 0002345  88.9005 271.2392 13.12442965 26587
ONEWEB-0127             
1 47273U 20100R   21178.72648369 -.00000168  00000-0 -50340-3 0  9992
2 47273  87.8892 351.5957 0002189  55.0981 305.0353 13.12274918 26599
ONEWEB-0128             
1 47274U 20100S   21178.74514393 -.00000305  00000-0 -88430-3 0  9998
2 47274  87.8914 351.5796 0002116  88.8200 271.3171 13.12445862 26618
ONEWEB-0129             
1 47275U 20100T   21178.72819562 -.00001952  00000-0 -54631-2 0  9997
2 47275  87.8925 351.5057 0002930  41.7515 318.3836 13.12448565 26547
ONEWEB-0130             
1 47276U 20100U   21178.75361312 -.00000116  00000-0 -35825-3 0  9992
2 47276  87.8947 351.5545 0002384  86.8065 273.3336 13.12444385 26515
ONEWEB-0131             
1 47277U 20100V   21178.74938746 -.00000288  00000-0 -83660-3 0  9993
2 47277  87.8948 351.5030 0002026  87.3807 272.7553 13.12445105 26558
ONEWEB-0132             
1 47278U 20100W   21178.78328282  .00000507  00000-0  13742-2 0  9991
2 47278  87.8909 351.6550 0001681  86.0172 274.1149 13.12443129 26451
ONEWEB-0133             
1 47279U 20100X   21178.72185174 -.00000130  00000-0 -39808-3 0  9993
2 47279  87.8933 351.5303 0001979  84.6049 275.5305 13.12447220 26603
ONEWEB-0134             
1 47280U 20100Y   21178.84259274  .00000785  00000-0  21458-2 0  9996
2 47280  87.8902 351.5749 0001923  99.4553 260.6793 13.12446403 26594
ONEWEB-0135             
1 47281U 20100Z   21178.73457190 -.00000388  00000-0 -11139-2 0  9998
2 47281  87.8905 351.5780 0002092  83.1063 277.0303 13.12440206 26603
ONEWEB-0136             
1 47282U 20100AA  21178.75574237  .00000000  00000-0 -35494-4 0  9995
2 47282  87.8930 351.5094 0002358  88.2173 271.9225 13.12442859 26537
ONEWEB-0137             
1 47283U 20100AB  21178.71763369  .00000341  00000-0  91283-3 0  9992
2 47283  87.8889 351.6722 0001710  77.4349 282.6970 13.12443360 26439
ONEWEB-0138             
1 47284U 20100AC  21178.84468971  .00000331  00000-0  88369-3 0  9998
2 47284  87.8895 351.6299 0002049  84.4980 275.6383 13.12441153 26530
ONEWEB-0139             
1 47285U 20100AD  21178.73877894 -.00000394  00000-0 -11319-2 0  9996
2 47285  87.8945 351.6216 0002130  91.5406 268.5966 13.12441148 26597
ONEWEB-0140             
1 47286U 20100AE  21178.83617629  .00000080  00000-0  18581-3 0  9995
2 47286  87.8924 351.5920 0002292  85.4216 274.7174 13.12449791 26576
ONEWEB-0141             
1 47287U 20100AF  21178.75151115 -.00000153  00000-0 -46208-3 0  9990
2 47287  87.8897 351.6347 0001942  84.3994 275.7356 13.12435946 26549
ONEWEB-0142             
1 47288U 20100AG  21178.85106632  .00000384  00000-0  10317-2 0  9991
2 47288  87.8924 351.6643 0001503  82.5505 277.5794 13.12438823 26555
ONEWEB-0143             
1 47289U 20100AH  21178.73033532 -.00000281  00000-0 -81673-3 0  9999
2 47289  87.8945 351.5375 0001949  87.6532 272.4819 13.12440505 26518
ONEWEB-0144             
1 47290U 20100AJ  21178.78115113  .00000411  00000-0  11059-2 0  9995
2 47290  87.8872 351.4910 0002116  95.9822 264.1548 13.12443663 26441
ONEWEB-0145             
1 47291U 20100AK  21178.74726861 -.00000315  00000-0 -91042-3 0  9996
2 47291  87.8921 351.5902 0002093  85.3598 274.7769 13.12443963 26632
ONEWEB-0146             
1 47292U 20100AL  21178.74301545 -.00000439  00000-0 -12564-2 0  9993
2 47292  87.8908 351.6363 0002108  88.1221 272.0149 13.12440179 26540
ONEWEB-0147             
1 47293U 20100AM  21178.71551752  .00000292  00000-0  77733-3 0  9993
2 47293  87.8925 351.6145 0002837  76.0984 284.0460 13.12441380 26431
ONEWEB-0115             
1 48042U 21025A   21178.91667824  .00000015  00000-0  00000-0 0  9996
2 48042  87.7993 321.1491 0005369 315.1476 325.4640 13.65201317  3437
ONEWEB-0152             
1 48043U 21025B   21178.91667824  .00000015  00000-0  00000-0 0  9997
2 48043  87.8076 321.2003 0007848 312.9569 126.3841 13.60040985  3453
ONEWEB-0153             
1 48044U 21025C   21178.91667824  .00000015  00000-0  00000-0 0  9998
2 48044  87.8370 321.2007 0009633 331.1342 154.6411 13.61060494  3401
ONEWEB-0154             
1 48045U 21025D   21178.91667824  .00000015  00000-0  00000-0 0  9999
2 48045  87.8202 321.1066 0006417 317.1746 185.1458 13.60668664  3412
ONEWEB-0116             
1 48046U 21025E   21178.91667824  .00000015  00000-0  00000-0 0  9990
2 48046  87.8226 321.1820 0006993 314.1086  64.4834 13.76801604  3428
ONEWEB-0150             
1 48047U 21025F   21178.91667824  .00000014  00000-0  00000-0 0  9990
2 48047  87.8322 321.1989 0005264 293.1445 236.1989 13.59026569  3404
ONEWEB-0107             
1 48048U 21025G   21178.91667824  .00000015  00000-0  00000-0 0  9992
2 48048  87.8204 321.1069 0009827 330.7121  63.2058 13.59633677  3401
ONEWEB-0101             
1 48049U 21025H   21178.91667824  .00000014  00000-0  00000-0 0  9992
2 48049  87.8459 321.1941 0006719 305.2116 319.2206 13.55553107  3427
